CCSDS_OMM_VERS = 2.0
CREATION_DATE  = 
ORIGINATOR     = 

OBJECT_NAME    = ISS (ZARYA)
OBJECT_ID      = 1998-067A
CENTER_NAME    = EARTH
REF_FRAME      = TEME
TIME_SYSTEM    = UTC
MEAN_ELEMENT_THEORY = SGP/SGP4

EPOCH          = 2026-01-03T05:02:41.800128
MEAN_MOTION    = 15.49059586
ECCENTRICITY   = .00075493
INCLINATION    = 51.6329
RA_OF_ASC_NODE = 36.1624
ARG_OF_PERICENTER = 334.7101
MEAN_ANOMALY   = 25.3517

EPHEMERIS_TYPE = 0
CLASSIFICATION_TYPE = U
NORAD_CAT_ID   = 25544
ELEMENT_SET_NO = 999
REV_AT_EPOCH   = 54618
BSTAR          = .28953765E-3
MEAN_MOTION_DOT = .15578E-3
MEAN_MOTION_DDOT = 0

CCSDS_OMM_VERS = 2.0
CREATION_DATE  = 
ORIGINATOR     = 

OBJECT_NAME    = CSS (TIANHE)
OBJECT_ID      = 2021-035A
CENTER_NAME    = EARTH
REF_FRAME      = TEME
TIME_SYSTEM    = UTC
MEAN_ELEMENT_THEORY = SGP/SGP4

EPOCH          = 2026-01-03T02:27:16.953984
MEAN_MOTION    = 15.60118747
ECCENTRICITY   = .00103492
INCLINATION    = 41.4661
RA_OF_ASC_NODE = 246.9310
ARG_OF_PERICENTER = 209.1942
MEAN_ANOMALY   = 150.8319

EPHEMERIS_TYPE = 0
CLASSIFICATION_TYPE = U
NORAD_CAT_ID   = 48274
ELEMENT_SET_NO = 999
REV_AT_EPOCH   = 26736
BSTAR          = .38473373E-3
MEAN_MOTION_DOT = .32013E-3
MEAN_MOTION_DDOT = 0

CCSDS_OMM_VERS = 2.0
CREATION_DATE  = 
ORIGINATOR     = 

OBJECT_NAME    = ISS (NAUKA)
OBJECT_ID      = 2021-066A
CENTER_NAME    = EARTH
REF_FRAME      = TEME
TIME_SYSTEM    = UTC
MEAN_ELEMENT_THEORY = SGP/SGP4

EPOCH          = 2026-01-03T05:02:41.800128
MEAN_MOTION    = 15.49059586
ECCENTRICITY   = .00075493
INCLINATION    = 51.6329
RA_OF_ASC_NODE = 36.1624
ARG_OF_PERICENTER = 334.7101
MEAN_ANOMALY   = 25.3517

EPHEMERIS_TYPE = 0
CLASSIFICATION_TYPE = U
NORAD_CAT_ID   = 49044
ELEMENT_SET_NO = 999
REV_AT_EPOCH   = 23044
BSTAR          = .28953765E-3
MEAN_MOTION_DOT = .15578E-3
MEAN_MOTION_DDOT = 0

CCSDS_OMM_VERS = 2.0
CREATION_DATE  = 
ORIGINATOR     = 

OBJECT_NAME    = FREGAT DEB
OBJECT_ID      = 2011-037PF
CENTER_NAME    = EARTH
REF_FRAME      = TEME
TIME_SYSTEM    = UTC
MEAN_ELEMENT_THEORY = SGP/SGP4

EPOCH          = 2026-01-02T14:52:34.960512
MEAN_MOTION    = 12.34901136
ECCENTRICITY   = .08738534
INCLINATION    = 51.6430
RA_OF_ASC_NODE = 137.6925
ARG_OF_PERICENTER = 269.6055
MEAN_ANOMALY   = 80.4748

EPHEMERIS_TYPE = 0
CLASSIFICATION_TYPE = U
NORAD_CAT_ID   = 49271
ELEMENT_SET_NO = 999
REV_AT_EPOCH   = 20451
BSTAR          = .61645109E-1
MEAN_MOTION_DOT = .28799E-3
MEAN_MOTION_DDOT = 0

CCSDS_OMM_VERS = 2.0
CREATION_DATE  = 
ORIGINATOR     = 

OBJECT_NAME    = CSS (WENTIAN)
OBJECT_ID      = 2022-085A
CENTER_NAME    = EARTH
REF_FRAME      = TEME
TIME_SYSTEM    = UTC
MEAN_ELEMENT_THEORY = SGP/SGP4

EPOCH          = 2026-01-03T02:27:16.953984
MEAN_MOTION    = 15.60118747
ECCENTRICITY   = .00103492
INCLINATION    = 41.4661
RA_OF_ASC_NODE = 246.9310
ARG_OF_PERICENTER = 209.1942
MEAN_ANOMALY   = 150.8319

EPHEMERIS_TYPE = 0
CLASSIFICATION_TYPE = U
NORAD_CAT_ID   = 53239
ELEMENT_SET_NO = 999
REV_AT_EPOCH   = 17384
BSTAR          = .38473373E-3
MEAN_MOTION_DOT = .32013E-3
MEAN_MOTION_DDOT = 0

CCSDS_OMM_VERS = 2.0
CREATION_DATE  = 
ORIGINATOR     = 

OBJECT_NAME    = CSS (MENGTIAN)
OBJECT_ID      = 2022-143A
CENTER_NAME    = EARTH
REF_FRAME      = TEME
TIME_SYSTEM    = UTC
MEAN_ELEMENT_THEORY = SGP/SGP4

EPOCH          = 2026-01-03T02:27:16.953984
MEAN_MOTION    = 15.60118747
ECCENTRICITY   = .00103492
INCLINATION    = 41.4661
RA_OF_ASC_NODE = 246.9310
ARG_OF_PERICENTER = 209.1942
MEAN_ANOMALY   = 150.8319

EPHEMERIS_TYPE = 0
CLASSIFICATION_TYPE = U
NORAD_CAT_ID   = 54216
ELEMENT_SET_NO = 999
REV_AT_EPOCH   = 15864
BSTAR          = .38473373E-3
MEAN_MOTION_DOT = .32013E-3
MEAN_MOTION_DDOT = 0

CCSDS_OMM_VERS = 2.0
CREATION_DATE  = 
ORIGINATOR     = 

OBJECT_NAME    = SHENZHOU-20 (SZ-20)
OBJECT_ID      = 2025-082A
CENTER_NAME    = EARTH
REF_FRAME      = TEME
TIME_SYSTEM    = UTC
MEAN_ELEMENT_THEORY = SGP/SGP4

EPOCH          = 2026-01-03T02:27:16.953984
MEAN_MOTION    = 15.60118747
ECCENTRICITY   = .00103492
INCLINATION    = 41.4661
RA_OF_ASC_NODE = 246.9310
ARG_OF_PERICENTER = 209.1942
MEAN_ANOMALY   = 150.8319

EPHEMERIS_TYPE = 0
CLASSIFICATION_TYPE = U
NORAD_CAT_ID   = 63632
ELEMENT_SET_NO = 999
REV_AT_EPOCH   = 25530
BSTAR          = .38473373E-3
MEAN_MOTION_DOT = .32013E-3
MEAN_MOTION_DDOT = 0

CCSDS_OMM_VERS = 2.0
CREATION_DATE  = 
ORIGINATOR     = 

OBJECT_NAME    = PROGRESS-MS 31
OBJECT_ID      = 2025-146A
CENTER_NAME    = EARTH
REF_FRAME      = TEME
TIME_SYSTEM    = UTC
MEAN_ELEMENT_THEORY = SGP/SGP4

EPOCH          = 2026-01-03T05:02:41.800128
MEAN_MOTION    = 15.49059586
ECCENTRICITY   = .00075493
INCLINATION    = 51.6329
RA_OF_ASC_NODE = 36.1624
ARG_OF_PERICENTER = 334.7101
MEAN_ANOMALY   = 25.3517

EPHEMERIS_TYPE = 0
CLASSIFICATION_TYPE = U
NORAD_CAT_ID   = 64751
ELEMENT_SET_NO = 999
REV_AT_EPOCH   = 675
BSTAR          = .28953765E-3
MEAN_MOTION_DOT = .15578E-3
MEAN_MOTION_DDOT = 0

CCSDS_OMM_VERS = 2.0
CREATION_DATE  = 
ORIGINATOR     = 

OBJECT_NAME    = TIANZHOU-9
OBJECT_ID      = 2025-149A
CENTER_NAME    = EARTH
REF_FRAME      = TEME
TIME_SYSTEM    = UTC
MEAN_ELEMENT_THEORY = SGP/SGP4

EPOCH          = 2026-01-03T02:27:16.953984
MEAN_MOTION    = 15.60118747
ECCENTRICITY   = .00103492
INCLINATION    = 41.4661
RA_OF_ASC_NODE = 246.9310
ARG_OF_PERICENTER = 209.1942
MEAN_ANOMALY   = 150.8319

EPHEMERIS_TYPE = 0
CLASSIFICATION_TYPE = U
NORAD_CAT_ID   = 64786
ELEMENT_SET_NO = 999
REV_AT_EPOCH   = 25530
BSTAR          = .38473373E-3
MEAN_MOTION_DOT = .32013E-3
MEAN_MOTION_DDOT = 0

CCSDS_OMM_VERS = 2.0
CREATION_DATE  = 
ORIGINATOR     = 

OBJECT_NAME    = CREW DRAGON 11
OBJECT_ID      = 2025-166A
CENTER_NAME    = EARTH
REF_FRAME      = TEME
TIME_SYSTEM    = UTC
MEAN_ELEMENT_THEORY = SGP/SGP4

EPOCH          = 2026-01-03T05:02:41.800128
MEAN_MOTION    = 15.49059586
ECCENTRICITY   = .00075493
INCLINATION    = 51.6329
RA_OF_ASC_NODE = 36.1624
ARG_OF_PERICENTER = 334.7101
MEAN_ANOMALY   = 25.3517

EPHEMERIS_TYPE = 0
CLASSIFICATION_TYPE = U
NORAD_CAT_ID   = 65077
ELEMENT_SET_NO = 999
REV_AT_EPOCH   = 214
BSTAR          = .28953765E-3
MEAN_MOTION_DOT = .15578E-3
MEAN_MOTION_DDOT = 0

CCSDS_OMM_VERS = 2.0
CREATION_DATE  = 
ORIGINATOR     = 

OBJECT_NAME    = DRAGON CRS-33
OBJECT_ID      = 2025-186A
CENTER_NAME    = EARTH
REF_FRAME      = TEME
TIME_SYSTEM    = UTC
MEAN_ELEMENT_THEORY = SGP/SGP4

EPOCH          = 2026-01-03T05:02:41.800128
MEAN_MOTION    = 15.49059586
ECCENTRICITY   = .00075493
INCLINATION    = 51.6329
RA_OF_ASC_NODE = 36.1624
ARG_OF_PERICENTER = 334.7101
MEAN_ANOMALY   = 25.3517

EPHEMERIS_TYPE = 0
CLASSIFICATION_TYPE = U
NORAD_CAT_ID   = 65304
ELEMENT_SET_NO = 999
REV_AT_EPOCH   = 11
BSTAR          = .28953765E-3
MEAN_MOTION_DOT = .15578E-3
MEAN_MOTION_DDOT = 0

CCSDS_OMM_VERS = 2.0
CREATION_DATE  = 
ORIGINATOR     = 

OBJECT_NAME    = PROGRESS-MS 32
OBJECT_ID      = 2025-204A
CENTER_NAME    = EARTH
REF_FRAME      = TEME
TIME_SYSTEM    = UTC
MEAN_ELEMENT_THEORY = SGP/SGP4

EPOCH          = 2026-01-03T05:02:41.800128
MEAN_MOTION    = 15.49059586
ECCENTRICITY   = .00075493
INCLINATION    = 51.6329
RA_OF_ASC_NODE = 36.1624
ARG_OF_PERICENTER = 334.7101
MEAN_ANOMALY   = 25.3517

EPHEMERIS_TYPE = 0
CLASSIFICATION_TYPE = U
NORAD_CAT_ID   = 65586
ELEMENT_SET_NO = 999
REV_AT_EPOCH   = 27
BSTAR          = .28953765E-3
MEAN_MOTION_DOT = .15578E-3
MEAN_MOTION_DDOT = 0

